<!doctype html>

<html>

<head>

<title>TLE for NORAD Catalog Number 44266</title>

</head>

<body>

<pre>
STARLINK-54             
1 44266U 19029AH  19301.88933249  .00002306  00000-0  17778-3 0  9997
2 44266  52.9943 183.1928 0002095 113.7191 246.4017 15.05491352 23135

</pre>
	
</body>

</html>
